STARLINK-36732          
1 67813U 26032S   26068.83334490  .00095003  00000+0  63192-3 0  9994
2 67813  97.2847 255.4096 0001620  94.1844 192.2378 15.75146745  4803
STARLINK-36767          
1 67814U 26032T   26068.80259010  .00174167  00000+0  11429-2 0  9990
2 67814  97.2840 255.3299 0001366  88.7690 271.3731 15.75230283  4809
STARLINK-36797          
1 67815U 26032U   26068.79376927  .00199246  00000+0  13032-2 0  9993
2 67815  97.2845 255.3431 0001669  71.7614 288.3833 15.75235550  4800
STARLINK-36343          
1 67816U 26032V   26068.83334490  .00096900  00000+0  64430-3 0  9990
2 67816  97.2844 255.4306 0001504 109.7913 226.6211 15.75149609  4741
STARLINK-36756          
1 67817U 26032W   26068.84847230  .00242146  00000+0  15740-2 0  9997
2 67817  97.2842 255.4206 0001281  81.0303 279.1107 15.75259396  4805
STARLINK-36346          
1 67818U 26032X   26068.83334490  .00085420  00000+0  56889-3 0  9996
2 67818  97.2849 255.4412 0001604  94.2099 266.2087 15.75147453  4803
STARLINK-36788          
1 67819U 26032Y   26068.79588475  .00158749  00000+0  10432-2 0  9994
2 67819  97.2844 255.3392 0001328  79.0861 281.0554 15.75241199  4802
STARLINK-36353          
1 67820U 26032Z   26068.79200354  .00153103  00000+0  10074-2 0  9994
2 67820  97.2843 255.3443 0001424  90.5484 269.5944 15.75227754  4801
STARLINK-36644          
1 67821U 26033A   26068.88371428  .00455801  00000+0  20387-2 0  9995
2 67821  42.9989 270.3364 0002276 280.0767  79.9848 15.82189518  4657
STARLINK-36643          
1 67822U 26033B   26068.81983464  .00298380  00000+0  13644-2 0  9993
2 67822  42.9986 270.7176 0001918 281.4315  78.6341 15.82123127  4643
STARLINK-36646          
1 67823U 26033C   26068.81908700  .00307573  00000+0  14056-2 0  9997
2 67823  42.9981 270.7114 0001623 273.6733  86.3953 15.82111413  4641
STARLINK-36647          
1 67824U 26033D   26068.81833473  .00225575  00000+0  10422-2 0  9996
2 67824  42.9985 270.7057 0002235 287.1157  72.9470 15.82094760  4642
