CCSDS_OMM_VERS = 2.0
CREATION_DATE  = 
ORIGINATOR     = 

OBJECT_NAME    = STARLINK-36732
OBJECT_ID      = 2026-032S
CENTER_NAME    = EARTH
REF_FRAME      = TEME
TIME_SYSTEM    = UTC
MEAN_ELEMENT_THEORY = SGP/SGP4

EPOCH          = 2026-03-09T20:00:00.999360
MEAN_MOTION    = 15.75146745
ECCENTRICITY   = .000162
INCLINATION    = 97.2847
RA_OF_ASC_NODE = 255.4096
ARG_OF_PERICENTER = 94.1844
MEAN_ANOMALY   = 192.2378

EPHEMERIS_TYPE = 0
CLASSIFICATION_TYPE = U
NORAD_CAT_ID   = 67813
ELEMENT_SET_NO = 999
REV_AT_EPOCH   = 480
BSTAR          = .63192E-3
MEAN_MOTION_DOT = .95003E-3
MEAN_MOTION_DDOT = 0

CCSDS_OMM_VERS = 2.0
CREATION_DATE  = 
ORIGINATOR     = 

OBJECT_NAME    = STARLINK-36767
OBJECT_ID      = 2026-032T
CENTER_NAME    = EARTH
REF_FRAME      = TEME
TIME_SYSTEM    = UTC
MEAN_ELEMENT_THEORY = SGP/SGP4

EPOCH          = 2026-03-09T19:15:43.784640
MEAN_MOTION    = 15.75230283
ECCENTRICITY   = .0001366
INCLINATION    = 97.2840
RA_OF_ASC_NODE = 255.3299
ARG_OF_PERICENTER = 88.7690
MEAN_ANOMALY   = 271.3731

EPHEMERIS_TYPE = 0
CLASSIFICATION_TYPE = U
NORAD_CAT_ID   = 67814
ELEMENT_SET_NO = 999
REV_AT_EPOCH   = 480
BSTAR          = .11429E-2
MEAN_MOTION_DOT = .174167E-2
MEAN_MOTION_DDOT = 0

CCSDS_OMM_VERS = 2.0
CREATION_DATE  = 
ORIGINATOR     = 

OBJECT_NAME    = STARLINK-36797
OBJECT_ID      = 2026-032U
CENTER_NAME    = EARTH
REF_FRAME      = TEME
TIME_SYSTEM    = UTC
MEAN_ELEMENT_THEORY = SGP/SGP4

EPOCH          = 2026-03-09T19:03:01.664928
MEAN_MOTION    = 15.75235550
ECCENTRICITY   = .0001669
INCLINATION    = 97.2845
RA_OF_ASC_NODE = 255.3431
ARG_OF_PERICENTER = 71.7614
MEAN_ANOMALY   = 288.3833

EPHEMERIS_TYPE = 0
CLASSIFICATION_TYPE = U
NORAD_CAT_ID   = 67815
ELEMENT_SET_NO = 999
REV_AT_EPOCH   = 480
BSTAR          = .13032E-2
MEAN_MOTION_DOT = .199246E-2
MEAN_MOTION_DDOT = 0

CCSDS_OMM_VERS = 2.0
CREATION_DATE  = 
ORIGINATOR     = 

OBJECT_NAME    = STARLINK-36343
OBJECT_ID      = 2026-032V
CENTER_NAME    = EARTH
REF_FRAME      = TEME
TIME_SYSTEM    = UTC
MEAN_ELEMENT_THEORY = SGP/SGP4

EPOCH          = 2026-03-09T20:00:00.999360
MEAN_MOTION    = 15.75149609
ECCENTRICITY   = .0001504
INCLINATION    = 97.2844
RA_OF_ASC_NODE = 255.4306
ARG_OF_PERICENTER = 109.7913
MEAN_ANOMALY   = 226.6211

EPHEMERIS_TYPE = 0
CLASSIFICATION_TYPE = U
NORAD_CAT_ID   = 67816
ELEMENT_SET_NO = 999
REV_AT_EPOCH   = 474
BSTAR          = .6443E-3
MEAN_MOTION_DOT = .969E-3
MEAN_MOTION_DDOT = 0

CCSDS_OMM_VERS = 2.0
CREATION_DATE  = 
ORIGINATOR     = 

OBJECT_NAME    = STARLINK-36756
OBJECT_ID      = 2026-032W
CENTER_NAME    = EARTH
REF_FRAME      = TEME
TIME_SYSTEM    = UTC
MEAN_ELEMENT_THEORY = SGP/SGP4

EPOCH          = 2026-03-09T20:21:48.006720
MEAN_MOTION    = 15.75259396
ECCENTRICITY   = .0001281
INCLINATION    = 97.2842
RA_OF_ASC_NODE = 255.4206
ARG_OF_PERICENTER = 81.0303
MEAN_ANOMALY   = 279.1107

EPHEMERIS_TYPE = 0
CLASSIFICATION_TYPE = U
NORAD_CAT_ID   = 67817
ELEMENT_SET_NO = 999
REV_AT_EPOCH   = 480
BSTAR          = .1574E-2
MEAN_MOTION_DOT = .242146E-2
MEAN_MOTION_DDOT = 0

CCSDS_OMM_VERS = 2.0
CREATION_DATE  = 
ORIGINATOR     = 

OBJECT_NAME    = STARLINK-36346
OBJECT_ID      = 2026-032X
CENTER_NAME    = EARTH
REF_FRAME      = TEME
TIME_SYSTEM    = UTC
MEAN_ELEMENT_THEORY = SGP/SGP4

EPOCH          = 2026-03-09T20:00:00.999360
MEAN_MOTION    = 15.75147453
ECCENTRICITY   = .0001604
INCLINATION    = 97.2849
RA_OF_ASC_NODE = 255.4412
ARG_OF_PERICENTER = 94.2099
MEAN_ANOMALY   = 266.2087

EPHEMERIS_TYPE = 0
CLASSIFICATION_TYPE = U
NORAD_CAT_ID   = 67818
ELEMENT_SET_NO = 999
REV_AT_EPOCH   = 480
BSTAR          = .56889E-3
MEAN_MOTION_DOT = .8542E-3
MEAN_MOTION_DDOT = 0

CCSDS_OMM_VERS = 2.0
CREATION_DATE  = 
ORIGINATOR     = 

OBJECT_NAME    = STARLINK-36788
OBJECT_ID      = 2026-032Y
CENTER_NAME    = EARTH
REF_FRAME      = TEME
TIME_SYSTEM    = UTC
MEAN_ELEMENT_THEORY = SGP/SGP4

EPOCH          = 2026-03-09T19:06:04.442400
MEAN_MOTION    = 15.75241199
ECCENTRICITY   = .0001328
INCLINATION    = 97.2844
RA_OF_ASC_NODE = 255.3392
ARG_OF_PERICENTER = 79.0861
MEAN_ANOMALY   = 281.0554

EPHEMERIS_TYPE = 0
CLASSIFICATION_TYPE = U
NORAD_CAT_ID   = 67819
ELEMENT_SET_NO = 999
REV_AT_EPOCH   = 480
BSTAR          = .10432E-2
MEAN_MOTION_DOT = .158749E-2
MEAN_MOTION_DDOT = 0

CCSDS_OMM_VERS = 2.0
CREATION_DATE  = 
ORIGINATOR     = 

OBJECT_NAME    = STARLINK-36353
OBJECT_ID      = 2026-032Z
CENTER_NAME    = EARTH
REF_FRAME      = TEME
TIME_SYSTEM    = UTC
MEAN_ELEMENT_THEORY = SGP/SGP4

EPOCH          = 2026-03-09T19:00:29.105856
MEAN_MOTION    = 15.75227754
ECCENTRICITY   = .0001424
INCLINATION    = 97.2843
RA_OF_ASC_NODE = 255.3443
ARG_OF_PERICENTER = 90.5484
MEAN_ANOMALY   = 269.5944

EPHEMERIS_TYPE = 0
CLASSIFICATION_TYPE = U
NORAD_CAT_ID   = 67820
ELEMENT_SET_NO = 999
REV_AT_EPOCH   = 480
BSTAR          = .10074E-2
MEAN_MOTION_DOT = .153103E-2
MEAN_MOTION_DDOT = 0

CCSDS_OMM_VERS = 2.0
CREATION_DATE  = 
ORIGINATOR     = 

OBJECT_NAME    = STARLINK-36644
OBJECT_ID      = 2026-033A
CENTER_NAME    = EARTH
REF_FRAME      = TEME
TIME_SYSTEM    = UTC
MEAN_ELEMENT_THEORY = SGP/SGP4

EPOCH          = 2026-03-09T21:12:32.913792
MEAN_MOTION    = 15.82189518
ECCENTRICITY   = .0002276
INCLINATION    = 42.9989
RA_OF_ASC_NODE = 270.3364
ARG_OF_PERICENTER = 280.0767
MEAN_ANOMALY   = 79.9848

EPHEMERIS_TYPE = 0
CLASSIFICATION_TYPE = U
NORAD_CAT_ID   = 67821
ELEMENT_SET_NO = 999
REV_AT_EPOCH   = 465
BSTAR          = .20387E-2
MEAN_MOTION_DOT = .455801E-2
MEAN_MOTION_DDOT = 0

CCSDS_OMM_VERS = 2.0
CREATION_DATE  = 
ORIGINATOR     = 

OBJECT_NAME    = STARLINK-36643
OBJECT_ID      = 2026-033B
CENTER_NAME    = EARTH
REF_FRAME      = TEME
TIME_SYSTEM    = UTC
MEAN_ELEMENT_THEORY = SGP/SGP4

EPOCH          = 2026-03-09T19:40:33.712896
MEAN_MOTION    = 15.82123127
ECCENTRICITY   = .0001918
INCLINATION    = 42.9986
RA_OF_ASC_NODE = 270.7176
ARG_OF_PERICENTER = 281.4315
MEAN_ANOMALY   = 78.6341

EPHEMERIS_TYPE = 0
CLASSIFICATION_TYPE = U
NORAD_CAT_ID   = 67822
ELEMENT_SET_NO = 999
REV_AT_EPOCH   = 464
BSTAR          = .13644E-2
MEAN_MOTION_DOT = .29838E-2
MEAN_MOTION_DDOT = 0

CCSDS_OMM_VERS = 2.0
CREATION_DATE  = 
ORIGINATOR     = 

OBJECT_NAME    = STARLINK-36646
OBJECT_ID      = 2026-033C
CENTER_NAME    = EARTH
REF_FRAME      = TEME
TIME_SYSTEM    = UTC
MEAN_ELEMENT_THEORY = SGP/SGP4

EPOCH          = 2026-03-09T19:39:29.116800
MEAN_MOTION    = 15.82111413
ECCENTRICITY   = .0001623
INCLINATION    = 42.9981
RA_OF_ASC_NODE = 270.7114
ARG_OF_PERICENTER = 273.6733
MEAN_ANOMALY   = 86.3953

EPHEMERIS_TYPE = 0
CLASSIFICATION_TYPE = U
NORAD_CAT_ID   = 67823
ELEMENT_SET_NO = 999
REV_AT_EPOCH   = 464
BSTAR          = .14056E-2
MEAN_MOTION_DOT = .307573E-2
MEAN_MOTION_DDOT = 0

CCSDS_OMM_VERS = 2.0
CREATION_DATE  = 
ORIGINATOR     = 

OBJECT_NAME    = STARLINK-36647
OBJECT_ID      = 2026-033D
CENTER_NAME    = EARTH
REF_FRAME      = TEME
TIME_SYSTEM    = UTC
MEAN_ELEMENT_THEORY = SGP/SGP4

EPOCH          = 2026-03-09T19:38:24.120672
MEAN_MOTION    = 15.82094760
ECCENTRICITY   = .0002235
INCLINATION    = 42.9985
RA_OF_ASC_NODE = 270.7057
ARG_OF_PERICENTER = 287.1157
MEAN_ANOMALY   = 72.9470

EPHEMERIS_TYPE = 0
CLASSIFICATION_TYPE = U
NORAD_CAT_ID   = 67824
ELEMENT_SET_NO = 999
REV_AT_EPOCH   = 464
BSTAR          = .10422E-2
MEAN_MOTION_DOT = .225575E-2
MEAN_MOTION_DDOT = 0

